CCSDS_OMM_VERS = 2.0
CREATION_DATE  = 
ORIGINATOR     = 

OBJECT_NAME    = ATLAS CENTAUR R/B
OBJECT_ID      = 1972-065B
CENTER_NAME    = EARTH
REF_FRAME      = TEME
TIME_SYSTEM    = UTC
MEAN_ELEMENT_THEORY = SGP/SGP4

EPOCH          = 2026-01-17T21:08:16.001664
MEAN_MOTION    = 14.77514289
ECCENTRICITY   = .00345032
INCLINATION    = 35.0006
RA_OF_ASC_NODE = 243.4770
ARG_OF_PERICENTER = 302.1033
MEAN_ANOMALY   = 57.6320

EPHEMERIS_TYPE = 0
CLASSIFICATION_TYPE = U
NORAD_CAT_ID   = 6155
ELEMENT_SET_NO = 999
REV_AT_EPOCH   = 83374
BSTAR          = .12397988E-3
MEAN_MOTION_DOT = .884E-5
MEAN_MOTION_DDOT = 0

CCSDS_OMM_VERS = 2.0
CREATION_DATE  = 
ORIGINATOR     = 

OBJECT_NAME    = SL-8 R/B
OBJECT_ID      = 1975-112B
CENTER_NAME    = EARTH
REF_FRAME      = TEME
TIME_SYSTEM    = UTC
MEAN_ELEMENT_THEORY = SGP/SGP4

EPOCH          = 2026-01-17T17:22:57.181152
MEAN_MOTION    = 14.38171410
ECCENTRICITY   = .00163283
INCLINATION    = 74.0612
RA_OF_ASC_NODE = 112.6701
ARG_OF_PERICENTER = 220.3373
MEAN_ANOMALY   = 139.6571

EPHEMERIS_TYPE = 0
CLASSIFICATION_TYPE = U
NORAD_CAT_ID   = 8459
ELEMENT_SET_NO = 999
REV_AT_EPOCH   = 62454
BSTAR          = .77249695E-4
MEAN_MOTION_DOT = .209E-5
MEAN_MOTION_DDOT = 0

CCSDS_OMM_VERS = 2.0
CREATION_DATE  = 
ORIGINATOR     = 

OBJECT_NAME    = SL-3 R/B
OBJECT_ID      = 1977-057B
CENTER_NAME    = EARTH
REF_FRAME      = TEME
TIME_SYSTEM    = UTC
MEAN_ELEMENT_THEORY = SGP/SGP4

EPOCH          = 2026-01-17T20:49:47.860320
MEAN_MOTION    = 15.43909388
ECCENTRICITY   = .00085846
INCLINATION    = 97.5698
RA_OF_ASC_NODE = 187.6341
ARG_OF_PERICENTER = 104.5801
MEAN_ANOMALY   = 255.6399

EPHEMERIS_TYPE = 0
CLASSIFICATION_TYPE = U
NORAD_CAT_ID   = 10114
ELEMENT_SET_NO = 999
REV_AT_EPOCH   = 66048
BSTAR          = .25526923E-3
MEAN_MOTION_DOT = .11524E-3
MEAN_MOTION_DDOT = 0

CCSDS_OMM_VERS = 2.0
CREATION_DATE  = 
ORIGINATOR     = 

OBJECT_NAME    = SEASAT 1
OBJECT_ID      = 1978-064A
CENTER_NAME    = EARTH
REF_FRAME      = TEME
TIME_SYSTEM    = UTC
MEAN_ELEMENT_THEORY = SGP/SGP4

EPOCH          = 2026-01-17T22:19:49.397376
MEAN_MOTION    = 14.46105441
ECCENTRICITY   = .00011901
INCLINATION    = 108.0162
RA_OF_ASC_NODE = 18.9726
ARG_OF_PERICENTER = 279.4109
MEAN_ANOMALY   = 80.6902

EPHEMERIS_TYPE = 0
CLASSIFICATION_TYPE = U
NORAD_CAT_ID   = 10967
ELEMENT_SET_NO = 999
REV_AT_EPOCH   = 49917
BSTAR          = .10730668E-3
MEAN_MOTION_DOT = .246E-5
MEAN_MOTION_DDOT = 0

CCSDS_OMM_VERS = 2.0
CREATION_DATE  = 
ORIGINATOR     = 

OBJECT_NAME    = SL-14 R/B
OBJECT_ID      = 1979-011B
CENTER_NAME    = EARTH
REF_FRAME      = TEME
TIME_SYSTEM    = UTC
MEAN_ELEMENT_THEORY = SGP/SGP4

EPOCH          = 2026-01-17T19:22:28.471008
MEAN_MOTION    = 14.91825732
ECCENTRICITY   = .00150296
INCLINATION    = 82.5259
RA_OF_ASC_NODE = 144.8386
ARG_OF_PERICENTER = 223.7175
MEAN_ANOMALY   = 136.2856

EPHEMERIS_TYPE = 0
CLASSIFICATION_TYPE = U
NORAD_CAT_ID   = 11267
ELEMENT_SET_NO = 999
REV_AT_EPOCH   = 52119
BSTAR          = .53980472E-4
MEAN_MOTION_DOT = .571E-5
MEAN_MOTION_DDOT = 0

CCSDS_OMM_VERS = 2.0
CREATION_DATE  = 
ORIGINATOR     = 

OBJECT_NAME    = SL-8 R/B
OBJECT_ID      = 1979-089B
CENTER_NAME    = EARTH
REF_FRAME      = TEME
TIME_SYSTEM    = UTC
MEAN_ELEMENT_THEORY = SGP/SGP4

EPOCH          = 2026-01-17T21:42:28.824192
MEAN_MOTION    = 14.42310003
ECCENTRICITY   = .00156133
INCLINATION    = 74.0676
RA_OF_ASC_NODE = 185.0435
ARG_OF_PERICENTER = 6.1774
MEAN_ANOMALY   = 353.9572

EPHEMERIS_TYPE = 0
CLASSIFICATION_TYPE = U
NORAD_CAT_ID   = 11574
ELEMENT_SET_NO = 999
REV_AT_EPOCH   = 42878
BSTAR          = .12197208E-3
MEAN_MOTION_DOT = .377E-5
MEAN_MOTION_DDOT = 0

CCSDS_OMM_VERS = 2.0
CREATION_DATE  = 
ORIGINATOR     = 

OBJECT_NAME    = SL-14 R/B
OBJECT_ID      = 1980-005B
CENTER_NAME    = EARTH
REF_FRAME      = TEME
TIME_SYSTEM    = UTC
MEAN_ELEMENT_THEORY = SGP/SGP4

EPOCH          = 2026-01-17T23:43:05.828160
MEAN_MOTION    = 14.90844409
ECCENTRICITY   = .0015128
INCLINATION    = 82.5151
RA_OF_ASC_NODE = 355.3158
ARG_OF_PERICENTER = 338.5026
MEAN_ANOMALY   = 21.5555

EPHEMERIS_TYPE = 0
CLASSIFICATION_TYPE = U
NORAD_CAT_ID   = 11672
ELEMENT_SET_NO = 999
REV_AT_EPOCH   = 46893
BSTAR          = .60554002E-4
MEAN_MOTION_DOT = .622E-5
MEAN_MOTION_DDOT = 0

CCSDS_OMM_VERS = 2.0
CREATION_DATE  = 
ORIGINATOR     = 

OBJECT_NAME    = SL-8 R/B
OBJECT_ID      = 1981-003B
CENTER_NAME    = EARTH
REF_FRAME      = TEME
TIME_SYSTEM    = UTC
MEAN_ELEMENT_THEORY = SGP/SGP4

EPOCH          = 2026-01-17T21:45:50.870592
MEAN_MOTION    = 15.08623587
ECCENTRICITY   = .02706775
INCLINATION    = 82.9393
RA_OF_ASC_NODE = 336.9097
ARG_OF_PERICENTER = 356.0500
MEAN_ANOMALY   = 3.8585

EPHEMERIS_TYPE = 0
CLASSIFICATION_TYPE = U
NORAD_CAT_ID   = 12139
ELEMENT_SET_NO = 999
REV_AT_EPOCH   = 30701
BSTAR          = .69788585E-3
MEAN_MOTION_DOT = .26326E-3
MEAN_MOTION_DDOT = 0

CCSDS_OMM_VERS = 2.0
CREATION_DATE  = 
ORIGINATOR     = 

OBJECT_NAME    = SL-3 R/B
OBJECT_ID      = 1981-046B
CENTER_NAME    = EARTH
REF_FRAME      = TEME
TIME_SYSTEM    = UTC
MEAN_ELEMENT_THEORY = SGP/SGP4

EPOCH          = 2026-01-17T21:14:30.811776
MEAN_MOTION    = 15.40468633
ECCENTRICITY   = .00188414
INCLINATION    = 81.2330
RA_OF_ASC_NODE = 350.6658
ARG_OF_PERICENTER = 190.5504
MEAN_ANOMALY   = 169.5345

EPHEMERIS_TYPE = 0
CLASSIFICATION_TYPE = U
NORAD_CAT_ID   = 12465
ELEMENT_SET_NO = 999
REV_AT_EPOCH   = 43060
BSTAR          = .26322699E-3
MEAN_MOTION_DOT = .10762E-3
MEAN_MOTION_DDOT = 0

CCSDS_OMM_VERS = 2.0
CREATION_DATE  = 
ORIGINATOR     = 

OBJECT_NAME    = SL-3 R/B
OBJECT_ID      = 1981-103B
CENTER_NAME    = EARTH
REF_FRAME      = TEME
TIME_SYSTEM    = UTC
MEAN_ELEMENT_THEORY = SGP/SGP4

EPOCH          = 2026-01-17T22:06:19.943424
MEAN_MOTION    = 15.20700182
ECCENTRICITY   = .00144896
INCLINATION    = 81.1592
RA_OF_ASC_NODE = 272.9688
ARG_OF_PERICENTER = 94.6211
MEAN_ANOMALY   = 265.6675

EPHEMERIS_TYPE = 0
CLASSIFICATION_TYPE = U
NORAD_CAT_ID   = 12904
ELEMENT_SET_NO = 999
REV_AT_EPOCH   = 96551
BSTAR          = .23852134E-3
MEAN_MOTION_DOT = .5281E-4
MEAN_MOTION_DDOT = 0

CCSDS_OMM_VERS = 2.0
CREATION_DATE  = 
ORIGINATOR     = 

OBJECT_NAME    = SL-3 R/B
OBJECT_ID      = 1982-013B
CENTER_NAME    = EARTH
REF_FRAME      = TEME
TIME_SYSTEM    = UTC
MEAN_ELEMENT_THEORY = SGP/SGP4

EPOCH          = 2026-01-17T22:50:02.983488
MEAN_MOTION    = 15.21423916
ECCENTRICITY   = .00227052
INCLINATION    = 81.1722
RA_OF_ASC_NODE = 220.2119
ARG_OF_PERICENTER = 353.2204
MEAN_ANOMALY   = 6.8716

EPHEMERIS_TYPE = 0
CLASSIFICATION_TYPE = U
NORAD_CAT_ID   = 13068
ELEMENT_SET_NO = 999
REV_AT_EPOCH   = 39663
BSTAR          = .1697825E-3
MEAN_MOTION_DOT = .3862E-4
MEAN_MOTION_DDOT = 0

CCSDS_OMM_VERS = 2.0
CREATION_DATE  = 
ORIGINATOR     = 

OBJECT_NAME    = SL-3 R/B
OBJECT_ID      = 1982-039B
CENTER_NAME    = EARTH
REF_FRAME      = TEME
TIME_SYSTEM    = UTC
MEAN_ELEMENT_THEORY = SGP/SGP4

EPOCH          = 2026-01-17T23:04:29.022528
MEAN_MOTION    = 15.09759363
ECCENTRICITY   = .00299424
INCLINATION    = 81.1674
RA_OF_ASC_NODE = 274.4143
ARG_OF_PERICENTER = 130.4677
MEAN_ANOMALY   = 229.9166

EPHEMERIS_TYPE = 0
CLASSIFICATION_TYPE = U
NORAD_CAT_ID   = 13154
ELEMENT_SET_NO = 999
REV_AT_EPOCH   = 37398
BSTAR          = .15046939E-3
MEAN_MOTION_DOT = .2477E-4
MEAN_MOTION_DDOT = 0

