ATLAS CENTAUR R/B       
1 06155U 72065B   26017.88074076  .00000884  00000+0  12398-3 0  9998
2 06155  35.0006 243.4770 0034503 302.1033  57.6320 14.77514289833743
SL-8 R/B                
1 08459U 75112B   26017.72427293  .00000209  00000+0  77250-4 0  9999
2 08459  74.0612 112.6701 0016328 220.3373 139.6571 14.38171410624549
SL-3 R/B                
1 10114U 77057B   26017.86791505  .00011524  00000+0  25527-3 0  9996
2 10114  97.5698 187.6341 0008584 104.5801 255.6399 15.43909388660480
SEASAT 1                
1 10967U 78064A   26017.93043284  .00000246  00000+0  10731-3 0  9993
2 10967 108.0162  18.9726 0001190 279.4109  80.6902 14.46105441499174
SL-14 R/B               
1 11267U 79011B   26017.80727397  .00000571  00000+0  53980-4 0  9995
2 11267  82.5259 144.8386 0015029 223.7175 136.2856 14.91825732521199
SL-8 R/B                
1 11574U 79089B   26017.90450028  .00000377  00000+0  12197-3 0  9994
2 11574  74.0676 185.0435 0015613   6.1774 353.9572 14.42310003428788
SL-14 R/B               
1 11672U 80005B   26017.98826190  .00000622  00000+0  60554-4 0  9992
2 11672  82.5151 355.3158 0015128 338.5026  21.5555 14.90844409468931
SL-8 R/B                
1 12139U 81003B   26017.90683878  .00026326  00000+0  69789-3 0  9993
2 12139  82.9393 336.9097 0270677 356.0500   3.8585 15.08623587307012
SL-3 R/B                
1 12465U 81046B   26017.88507884  .00010762  00000+0  26323-3 0  9995
2 12465  81.2330 350.6658 0018841 190.5504 169.5345 15.40468633430602
SL-3 R/B                
1 12904U 81103B   26017.92106416  .00005281  00000+0  23852-3 0  9992
2 12904  81.1592 272.9688 0014489  94.6211 265.6675 15.20700182965514
SL-3 R/B                
1 13068U 82013B   26017.95142342  .00003862  00000+0  16978-3 0  9990
2 13068  81.1722 220.2119 0022705 353.2204   6.8716 15.21423916396632
SL-3 R/B                
1 13154U 82039B   26017.96144702  .00002477  00000+0  15047-3 0  9994
2 13154  81.1674 274.4143 0029942 130.4677 229.9166 15.09759363373985
